{
 "type": "FeatureCollection",
 "crs": {
  "type": "name",
  "properties": {
   "name": "EPSG:4326"
  }
 },
 "features": [
  {
   "type": "Feature",
   "id": 6,
   "geometry": {
    "type": "LineString",
    "coordinates": [
     [
      -122.484823700109,
      48.7527137348493
     ],
     [
      -122.483066298969,
      48.7542239717812
     ],
     [
      -122.481876247712,
      48.7549777880585
     ],
     [
      -122.481386120946,
      48.7551949789451
     ]
    ]
   },
   "properties": {
    "reach": "R1",
    "label": "R1: Mouth to Maritime Heritage Park",
    "length_km": 0.38
   }
  },
  {
   "type": "Feature",
   "id": 4,
   "geometry": {
    "type": "LineString",
    "coordinates": [
     [
      -122.481386120604,
      48.7551949792193
     ],
     [
      -122.480164836721,
      48.7557361650625
     ],
     [
      -122.478791517468,
      48.7559258468035
     ],
     [
      -122.478312646251,
      48.7559214992387
     ],
     [
      -122.477414515121,
      48.7554503130186
     ],
     [
      -122.476824782815,
      48.7549455227179
     ],
     [
      -122.476775837209,
      48.754398341317
     ],
     [
      -122.47667866914,
      48.7539885794399
     ],
     [
      -122.475318321559,
      48.7539069573783
     ],
     [
      -122.473625512881,
      48.7538915889674
     ],
     [
      -122.473030734738,
      48.753610260162
     ],
     [
      -122.472732001787,
      48.7534689590818
     ],
     [
      -122.473116470847,
      48.7526074456516
     ],
     [
      -122.472803214833,
      48.7524430917292
     ],
     [
      -122.472491037695,
      48.7524862120463
     ],
     [
      -122.472299639048,
      48.7518803399172
     ],
     [
      -122.471630967286,
      48.75152950622
     ],
     [
      -122.470248804119,
      48.7516181868076
     ],
     [
      -122.468825495416,
      48.7525684879133
     ],
     [
      -122.467905572954,
      48.7529761540926
     ],
     [
      -122.467685594406,
      48.7537061756395
     ],
     [
      -122.466829559229,
      48.7541416435459
     ],
     [
      -122.465110382303,
      48.7542147960413
     ],
     [
      -122.464023177366,
      48.7548440975983
     ],
     [
      -122.463284066906,
      48.7548915161296
     ],
     [
      -122.46250495806,
      48.7541931338736
     ],
     [
      -122.460607180784,
      48.7537441914003
     ],
     [
      -122.459022882305,
      48.7547477442557
     ],
     [
      -122.45706308085,
      48.7547575719592
     ],
     [
      -122.454506631858,
      48.7548854705151
     ],
     [
      -122.453234309294,
      48.7543476726491
     ],
     [
      -122.45008820076,
      48.7539582679015
     ],
     [
      -122.448139533025,
      48.7547473154707
     ],
     [
      -122.446997971928,
      48.7549049896506
     ],
     [
      -122.445602037587,
      48.7549119899576
     ],
     [
      -122.445326766834,
      48.7550088973232
     ]
    ]
   },
   "properties": {
    "reach": "R2",
    "label": "R2: Maritime Heritage Park to Woburn St",
    "length_km": 3.34
   }
  },
  {
   "type": "Feature",
   "id": 3,
   "geometry": {
    "type": "LineString",
    "coordinates": [
     [
      -122.445326767068,
      48.7550088972652
     ],
     [
      -122.444903381858,
      48.7551579470817
     ],
     [
      -122.445008308676,
      48.7558615607265
     ],
     [
      -122.443504863064,
      48.7567317619089
     ],
     [
      -122.442117790603,
      48.7563574655481
     ],
     [
      -122.440648312089,
      48.7557363498392
     ],
     [
      -122.438507293492,
      48.7552298810467
     ],
     [
      -122.436386877756,
      48.7544641294301
     ],
     [
      -122.435480621364,
      48.7537615782651
     ],
     [
      -122.433470360642,
      48.7521183517019
     ],
     [
      -122.430355082288,
      48.7506447623903
     ],
     [
      -122.429762204082,
      48.7509075081302
     ],
     [
      -122.428859729598,
      48.75243171419
     ],
     [
      -122.427908488273,
      48.7537391376772
     ],
     [
      -122.427319459348,
      48.7537642013672
     ]
    ]
   },
   "properties": {
    "reach": "R3",
    "label": "R3: Woburn St to WWU Fisheries Rental",
    "length_km": 1.9
   }
  },
  {
   "type": "Feature",
   "id": 1,
   "geometry": {
    "type": "LineString",
    "coordinates": [
     [
      -122.427319459348,
      48.7537642013672
     ],
     [
      -122.425466700244,
      48.7538430388773
     ],
     [
      -122.423734963073,
      48.7554132088164
     ],
     [
      -122.422341111926,
      48.756944084557
     ],
     [
      -122.422396051092,
      48.7597018119943
     ],
     [
      -122.421349504803,
      48.7614690304892
     ],
     [
      -122.420788307482,
      48.7615313546553
     ],
     [
      -122.420519810026,
      48.7615611724967
     ]
    ]
   },
   "properties": {
    "reach": "R4",
    "label": "R4: WWU Rental to Lake Outlet",
    "length_km": 1.13
   }
  }
 ]
}